CTC1_L_00606001-01
1 10000U 25902BM  26075.70039352  .00000000  00000+0  00000-0 0  9997
2 10000  65.0000   0.0000 0000000   0.0000   0.0000  5.31014043    16
CTC1_L_00606001-02
1 10001U 23083FW  26075.70039352  .00000000  00000+0  00000-0 0  9996
2 10001  65.0000   0.0000 0000000   0.0000  36.0000  5.31014043    16
CTC1_L_00606001-03
1 10002U 23142SA  26075.70039352  .00000000  00000+0  00000-0 0  9993
2 10002  65.0000   0.0000 0000000   0.0000  72.0000  5.31014043    17
CTC1_L_00606001-04
1 10003U 25297JC  26075.70039352  .00000000  00000+0  00000-0 0  9997
2 10003  65.0000   0.0000 0000000   0.0000 108.0000  5.31014043    18
CTC1_L_00606001-05
1 10004U 25423QV  26075.70039352  .00000000  00000+0  00000-0 0  9999
2 10004  65.0000   0.0000 0000000   0.0000 144.0000  5.31014043    19
CTC1_L_00606001-06
1 10005U 24433ZO  26075.70039352  .00000000  00000+0  00000-0 0  9990
2 10005  65.0000   0.0000 0000000   0.0000 180.0000  5.31014043    10
CTC1_L_00606001-07
1 10006U 26481HE  26075.70039352  .00000000  00000+0  00000-0 0  9996
2 10006  65.0000   0.0000 0000000   0.0000 216.0000  5.31014043    11
CTC1_L_00606001-08
1 10007U 23506ZG  26075.70039352  .00000000  00000+0  00000-0 0  9992
2 10007  65.0000   0.0000 0000000   0.0000 252.0000  5.31014043    12
CTC1_L_00606001-09
1 10008U 25484VN  26075.70039352  .00000000  00000+0  00000-0 0  9990
2 10008  65.0000   0.0000 0000000   0.0000 288.0000  5.31014043    12
CTC1_L_00606001-10
1 10009U 25493YV  26075.70039352  .00000000  00000+0  00000-0 0  9991
2 10009  65.0000   0.0000 0000000   0.0000 324.0000  5.31014043    14
CTC1_L_00606002-01
1 10010U 25716TF  26075.70039352  .00000000  00000+0  00000-0 0  9991
2 10010  65.0000  30.0000 0000000   0.0000  12.0000  5.31014043    13
CTC1_L_00606002-02
1 10011U 24126BG  26075.70039352  .00000000  00000+0  00000-0 0  9996
2 10011  65.0000  30.0000 0000000   0.0000  48.0000  5.31014043    13
CTC1_L_00606002-03
1 10012U 22774VM  26075.70039352  .00000000  00000+0  00000-0 0  9994
2 10012  65.0000  30.0000 0000000   0.0000  84.0000  5.31014043    14
CTC1_L_00606002-04
1 10013U 25557GJ  26075.70039352  .00000000  00000+0  00000-0 0  9997
2 10013  65.0000  30.0000 0000000   0.0000 120.0000  5.31014043    16
CTC1_L_00606002-05
1 10014U 23777VG  26075.70039352  .00000000  00000+0  00000-0 0  9990
2 10014  65.0000  30.0000 0000000   0.0000 156.0000  5.31014043    16
CTC1_L_00606002-06
1 10015U 26077DQ  26075.70039352  .00000000  00000+0  00000-0 0  9997
2 10015  65.0000  30.0000 0000000   0.0000 192.0000  5.31014043    17
CTC1_L_00606002-07
1 10016U 23173OG  26075.70039352  .00000000  00000+0  00000-0 0  9992
2 10016  65.0000  30.0000 0000000   0.0000 228.0000  5.31014043    18
CTC1_L_00606002-08
1 10017U 22786MS  26075.70039352  .00000000  00000+0  00000-0 0  9992
2 10017  65.0000  30.0000 0000000   0.0000 264.0000  5.31014043    19
CTC1_L_00606002-09
1 10018U 22579Y   26075.70039352  .00000000  00000+0  00000-0 0  9993
2 10018  65.0000  30.0000 0000000   0.0000 300.0000  5.31014043    11
CTC1_L_00606002-10
1 10019U 24717A   26075.70039352  .00000000  00000+0  00000-0 0  9990
2 10019  65.0000  30.0000 0000000   0.0000 336.0000  5.31014043    11
CTC1_L_00606003-01
1 10020U 22371SE  26075.70039352  .00000000  00000+0  00000-0 0  9996
2 10020  65.0000  60.0000 0000000   0.0000  24.0000  5.31014043    10
CTC1_L_00606003-02
1 10021U 23144DD  26075.70039352  .00000000  00000+0  00000-0 0  9996
2 10021  65.0000  60.0000 0000000   0.0000  60.0000  5.31014043    11
CTC1_L_00606003-03
1 10022U 24578GM  26075.70039352  .00000000  00000+0  00000-0 0  9999
2 10022  65.0000  60.0000 0000000   0.0000  96.0000  5.31014043    11
CTC1_L_00606003-04
1 10023U 22510QS  26075.70039352  .00000000  00000+0  00000-0 0  9994
2 10023  65.0000  60.0000 0000000   0.0000 132.0000  5.31014043    13
CTC1_L_00606003-05
1 10024U 25710PA  26075.70039352  .00000000  00000+0  00000-0 0  9990
2 10024  65.0000  60.0000 0000000   0.0000 168.0000  5.31014043    13
CTC1_L_00606003-06
1 10025U 25760DL  26075.70039352  .00000000  00000+0  00000-0 0  9996
2 10025  65.0000  60.0000 0000000   0.0000 204.0000  5.31014043    15
CTC1_L_00606003-07
1 10026U 26485BE  26075.70039352  .00000000  00000+0  00000-0 0  9992
2 10026  65.0000  60.0000 0000000   0.0000 240.0000  5.31014043    16
CTC1_L_00606003-08
1 10027U 22462BI  26075.70039352  .00000000  00000+0  00000-0 0  9994
2 10027  65.0000  60.0000 0000000   0.0000 276.0000  5.31014043    16
CTC1_L_00606003-09
1 10028U 26575YN  26075.70039352  .00000000  00000+0  00000-0 0  9994
2 10028  65.0000  60.0000 0000000   0.0000 312.0000  5.31014043    18
CTC1_L_00606003-10
1 10029U 26815IT  26075.70039352  .00000000  00000+0  00000-0 0  9992
2 10029  65.0000  60.0000 0000000   0.0000 348.0000  5.31014043    18
CTC1_L_00606004-01
1 10030U 23187XO  26075.70039352  .00000000  00000+0  00000-0 0  9993
2 10030  65.0000  90.0000 0000000   0.0000  36.0000  5.31014043    17
CTC1_L_00606004-02
1 10031U 22785WG  26075.70039352  .00000000  00000+0  00000-0 0  9997
2 10031  65.0000  90.0000 0000000   0.0000  72.0000  5.31014043    18
CTC1_L_00606004-03
1 10032U 23954FU  26075.70039352  .00000000  00000+0  00000-0 0  9997
2 10032  65.0000  90.0000 0000000   0.0000 108.0000  5.31014043    19
CTC1_L_00606004-04
1 10033U 24211OD  26075.70039352  .00000000  00000+0  00000-0 0  9995
2 10033  65.0000  90.0000 0000000   0.0000 144.0000  5.31014043    10
CTC1_L_00606004-05
1 10034U 23632K   26075.70039352  .00000000  00000+0  00000-0 0  9992
2 10034  65.0000  90.0000 0000000   0.0000 180.0000  5.31014043    11
CTC1_L_00606004-06
1 10035U 25819V   26075.70039352  .00000000  00000+0  00000-0 0  9992
2 10035  65.0000  90.0000 0000000   0.0000 216.0000  5.31014043    12
CTC1_L_00606004-07
1 10036U 26265YL  26075.70039352  .00000000  00000+0  00000-0 0  9999
2 10036  65.0000  90.0000 0000000   0.0000 252.0000  5.31014043    13
CTC1_L_00606004-08
1 10037U 25422CM  26075.70039352  .00000000  00000+0  00000-0 0  9994
2 10037  65.0000  90.0000 0000000   0.0000 288.0000  5.31014043    13
CTC1_L_00606004-09
1 10038U 25389NE  26075.70039352  .00000000  00000+0  00000-0 0  9997
2 10038  65.0000  90.0000 0000000   0.0000 324.0000  5.31014043    15
CTC1_L_00606004-10
1 10039U 26386WB  26075.70039352  .00000000  00000+0  00000-0 0  9996
2 10039  65.0000  90.0000 0000000   0.0000   0.0000  5.31014043    17
CTC1_L_00606005-01
1 10040U 22525HP  26075.70039352  .00000000  00000+0  00000-0 0  9999
2 10040  65.0000 120.0000 0000000   0.0000  48.0000  5.31014043    15
CTC1_L_00606005-02
1 10041U 24459BH  26075.70039352  .00000000  00000+0  00000-0 0  9998
2 10041  65.0000 120.0000 0000000   0.0000  84.0000  5.31014043    16
CTC1_L_00606005-03
1 10042U 25960WZ  26075.70039352  .00000000  00000+0  00000-0 0  9997
2 10042  65.0000 120.0000 0000000   0.0000 120.0000  5.31014043    18
CTC1_L_00606005-04
1 10043U 26709TD  26075.70039352  .00000000  00000+0  00000-0 0  9990
2 10043  65.0000 120.0000 0000000   0.0000 156.0000  5.31014043    18
CTC1_L_00606005-05
1 10044U 23782AR  26075.70039352  .00000000  00000+0  00000-0 0  9999
2 10044  65.0000 120.0000 0000000   0.0000 192.0000  5.31014043    19
CTC1_L_00606005-06
1 10045U 22442CD  26075.70039352  .00000000  00000+0  00000-0 0  9992
2 10045  65.0000 120.0000 0000000   0.0000 228.0000  5.31014043    10
CTC1_L_00606005-07
1 10046U 26761TU  26075.70039352  .00000000  00000+0  00000-0 0  9991
2 10046  65.0000 120.0000 0000000   0.0000 264.0000  5.31014043    11
CTC1_L_00606005-08
1 10047U 25767XH  26075.70039352  .00000000  00000+0  00000-0 0  9997
2 10047  65.0000 120.0000 0000000   0.0000 300.0000  5.31014043    13
CTC1_L_00606005-09
1 10048U 25085OA  26075.70039352  .00000000  00000+0  00000-0 0  9991
2 10048  65.0000 120.0000 0000000   0.0000 336.0000  5.31014043    13
CTC1_L_00606005-10
1 10049U 26003AH  26075.70039352  .00000000  00000+0  00000-0 0  9993
2 10049  65.0000 120.0000 0000000   0.0000  12.0000  5.31014043    15
CTC1_L_00606006-01
1 10050U 22465XK  26075.70039352  .00000000  00000+0  00000-0 0  9993
2 10050  65.0000 150.0000 0000000   0.0000  60.0000  5.31014043    13
CTC1_L_00606006-02
1 10051U 25507GY  26075.70039352  .00000000  00000+0  00000-0 0  9994
2 10051  65.0000 150.0000 0000000   0.0000  96.0000  5.31014043    13
CTC1_L_00606006-03
1 10052U 24255KQ  26075.70039352  .00000000  00000+0  00000-0 0  9994
2 10052  65.0000 150.0000 0000000   0.0000 132.0000  5.31014043    15
CTC1_L_00606006-04
1 10053U 25831LR  26075.70039352  .00000000  00000+0  00000-0 0  9996
2 10053  65.0000 150.0000 0000000   0.0000 168.0000  5.31014043    15
CTC1_L_00606006-05
1 10054U 24007IO  26075.70039352  .00000000  00000+0  00000-0 0  9991
2 10054  65.0000 150.0000 0000000   0.0000 204.0000  5.31014043    17
CTC1_L_00606006-06
1 10055U 24595FN  26075.70039352  .00000000  00000+0  00000-0 0  9994
2 10055  65.0000 150.0000 0000000   0.0000 240.0000  5.31014043    18
CTC1_L_00606006-07
1 10056U 26328RI  26075.70039352  .00000000  00000+0  00000-0 0  9991
2 10056  65.0000 150.0000 0000000   0.0000 276.0000  5.31014043    18
CTC1_L_00606006-08
1 10057U 24860YP  26075.70039352  .00000000  00000+0  00000-0 0  9991
2 10057  65.0000 150.0000 0000000   0.0000 312.0000  5.31014043    10
CTC1_L_00606006-09
1 10058U 22367EL  26075.70039352  .00000000  00000+0  00000-0 0  9992
2 10058  65.0000 150.0000 0000000   0.0000 348.0000  5.31014043    10
CTC1_L_00606006-10
1 10059U 26161PX  26075.70039352  .00000000  00000+0  00000-0 0  9999
2 10059  65.0000 150.0000 0000000   0.0000  24.0000  5.31014043    12
CTC1_L_00606007-01
1 10060U 26090MJ  26075.70039352  .00000000  00000+0  00000-0 0  9992
2 10060  65.0000 180.0000 0000000   0.0000  72.0000  5.31014043    10
CTC1_L_00606007-02
1 10061U 24010KX  26075.70039352  .00000000  00000+0  00000-0 0  9993
2 10061  65.0000 180.0000 0000000   0.0000 108.0000  5.31014043    11
